[{"OBJECT_NAME":"KUIPER-00016","OBJECT_ID":"2025-088J","EPOCH":"2026-03-09T12:10:56.112096","MEAN_MOTION":14.79911342,"ECCENTRICITY":0.00063895,"INCLINATION":51.8993,"RA_OF_ASC_NODE":112.4008,"ARG_OF_PERICENTER":74.781,"MEAN_ANOMALY":285.3859,"EPHEMERIS_TYPE":0,"CLASSIFICATION_TYPE":"U","NORAD_CAT_ID":63732,"ELEMENT_SET_NO":999,"REV_AT_EPOCH":4730,"BSTAR":0.00067332806,"MEAN_MOTION_DOT":4.913e-5,"MEAN_MOTION_DDOT":0},{"OBJECT_NAME":"BREEZE-KM R\/B","OBJECT_ID":"2017-064B","EPOCH":"2026-03-09T23:37:28.009344","MEAN_MOTION":15.19279068,"ECCENTRICITY":0.01790923,"INCLINATION":98.7537,"RA_OF_ASC_NODE":74.9596,"ARG_OF_PERICENTER":357.1764,"MEAN_ANOMALY":2.8439,"EPHEMERIS_TYPE":0,"CLASSIFICATION_TYPE":"U","NORAD_CAT_ID":42970,"ELEMENT_SET_NO":999,"REV_AT_EPOCH":45981,"BSTAR":0.00038198457,"MEAN_MOTION_DOT":0.00012295,"MEAN_MOTION_DDOT":0}]
